BUCCANEER MM            
1 63245U 25052AM  26183.89858987  .00003665  00000+0  34241-3 0  9992
2 63245  97.6844  74.5866 0004801 143.2056 216.9495 14.94754611 70948
LEMUR-2-LEIA-PHILIP     
1 63246U 25052AN  26183.43990182  .00002006  00000+0  17769-3 0  9991
2 63246  97.6813  75.1327 0004392 156.0283 204.1144 14.97356498 70958
EZIE-A                  
1 63247U 25052AP  26183.41599536  .00005120  00000+0  44455-3 0  9990
2 63247  97.6877  75.3356 0003647 128.3210 231.8340 14.97461404 70945
LEMUR-2-LIA-MARTIN      
1 63248U 25052AQ  26183.64004010  .00005802  00000+0  49698-3 0  9995
2 63248  97.6863  75.8271 0004686 122.6554 237.5121 14.97926983 70997
EZIE-C                  
1 63249U 25052AR  26183.67807672  .00004126  00000+0  35975-3 0  9995
2 63249  97.6859  75.4820 0003496 136.3622 223.7877 14.97405800 70989
EZIE-B                  
1 63250U 25052AS  26183.20535043  .00003480  00000+0  30470-3 0  9993
2 63250  97.6897  75.1902 0004746 120.6614 239.5076 14.97341227 70918
UVSQ-SAT NG             
1 63251U 25052AT  26183.18186930  .00003653  00000+0  33527-3 0  9996
2 63251  97.6838  74.3470 0003542 144.0187 216.1273 14.95460530 70875
ARVAKER-1               
1 63252U 25052AU  26183.41362941  .00002129  00000+0  20184-3 0  9993
2 63252  97.6855  74.2999 0003023 138.6849 221.4600 14.94619500 70884
ICEYE-X48               
1 63253U 25052AV  26183.41959257  .00003281  00000+0  28227-3 0  9992
2 63253  97.6848  75.3747 0002530 130.0840 230.0604 14.98070407 70958
YAM-8                   
1 63254U 25052AW  26183.65645656  .00006031  00000+0  35591-3 0  9992
2 63254  97.6928  85.2440 0003711 124.9600 235.1979 15.11910330 71604
ICEYE-X50               
1 63255U 25052AX  26183.81654830  .00001513  00000+0  14237-3 0  9999
2 63255  97.6873  75.4109 0002733 124.9892 235.1586 14.95330471 70980
FIRESAT 0 (MUSAT-4)     
1 63256U 25052AY  26183.41749549  .00001264  00000+0  12713-3 0  9998
2 63256  97.6948  74.2560 0001264 111.3012 248.8342 14.92956931 70864
ICEYE-X51               
1 63257U 25052AZ  26183.79171025  .00003939  00000+0  31446-3 0  9993
2 63257  97.7586  78.8563 0001937  71.9517 288.1918 15.00859708 71147
ICEYE-X46               
1 63258U 25052BA  26183.41177698  .00001041  00000+0  99525-4 0  9990
2 63258  97.6874  75.0126 0001608  79.9957 280.1445 14.95326959 70924
LEMUR-2-DELOITTE-1      
1 63259U 25052BB  26183.41806816  .00004296  00000+0  37152-3 0  9994
2 63259  97.6897  75.9405 0002511  67.7482 292.4006 14.97706500 70971
TRANSPORTER-13 OBJECT BC
1 63260U 25052BC  26183.68313870  .00001459  00000+0  13954-3 0  9990
2 63260  97.6829  74.7504 0000381   2.6478 357.4744 14.94723025 70947
LEMUR-2-EMERSONROSE     
1 63261U 25052BD  26183.64525036  .00005208  00000+0  43236-3 0  9998
2 63261  97.6867  76.7500 0002502  76.9084 283.2418 14.99195276 71055
LEMUR-2-MARACHE-FRAN    
1 63262U 25052BE  26183.67661771  .00005224  00000+0  42213-3 0  9991
2 63262  97.6891  77.1310 0004330 313.7658  46.3207 15.00234829 71085
SOAP                    
1 63263U 25052BF  26183.86871525  .00002832  00000+0  25190-3 0  9990
2 63263  97.6850  75.9143 0000835 349.2989  10.8215 14.96879823 71031
LEMUR-2-THEFALCONER     
1 63264U 25052BG  26183.51353553  .00004899  00000+0  42529-3 0  9999
2 63264  97.6840  75.6367 0001154  25.8688 334.2592 14.97488536 70986
STARLINK-11654 [DTC]    
1 63265U 25053A   26183.16325901  .00072301  00000+0  56242-3 0  9998
2 63265  43.0012 142.1785 0001788 222.2896 137.7834 15.70824594 75670
STARLINK-11659 [DTC]    
1 63266U 25053B   26183.60305263  .00213908  00000+0  16273-2 0  9996
2 63266  42.9965 139.4565 0000962 186.0815 174.0041 15.70850266 75749
STARLINK-11653 [DTC]    
1 63267U 25053C   26183.31167196  .00169857  00000+0  12982-2 0  9992
2 63267  43.0018 141.5859 0002732 267.7022  92.3533 15.70877908 75699
STARLINK-11641 [DTC]    
1 63268U 25053D   26183.58711566  .00166420  00000+0  12723-2 0  9994
2 63268  43.0002 139.3276 0001730 253.2574 106.8104 15.70883329 75745
STARLINK-11638 [DTC]    
1 63269U 25053E   26183.78317402  .00182819  00000+0  13963-2 0  9995
2 63269  43.0015 138.2191 0001902 270.5039  89.5610 15.70853628 75774
STARLINK-11614 [DTC]    
1 63270U 25053F   26183.36994281  .00246709  00000+0  18680-2 0  9997
2 63270  43.0010 141.1633 0002597 282.5350  77.5227 15.70860158 75705
STARLINK-11620 [DTC]    
1 63271U 25053G   26183.57662727  .00203740  00000+0  15489-2 0  9990
2 63271  43.0005 140.1410 0001903 292.1514  67.9151 15.70897419 75733
STARLINK-11619 [DTC]    
1 63272U 25053H   26183.35932801  .00189501  00000+0  14483-2 0  9991
2 63272  43.0003 141.0755 0001872 276.9719  83.0936 15.70816626 75704
STARLINK-11621 [DTC]    
1 63273U 25053J   26183.66668980 -.00033637  00000+0 -25953-3 0  9995
2 63273  43.0008 138.7736 0001432 279.3077 201.3520 15.70855796  6000
STARLINK-11615 [DTC]    
1 63274U 25053K   26183.87329782  .00228398  00000+0  17299-2 0  9994
2 63274  42.9983 138.0531 0000874 266.2392  93.8376 15.70909566 75780
