OBJECT_NAME,OBJECT_ID,EPOCH,MEAN_MOTION,ECCENTRICITY,INCLINATION,RA_OF_ASC_NODE,ARG_OF_PERICENTER,MEAN_ANOMALY,EPHEMERIS_TYPE,CLASSIFICATION_TYPE,NORAD_CAT_ID,ELEMENT_SET_NO,REV_AT_EPOCH,BSTAR,MEAN_MOTION_DOT,MEAN_MOTION_DDOT
BUCCANEER MM,2025-052AM,2026-07-02T21:33:58.164768,14.94754611,.0004801,97.6844,74.5866,143.2056,216.9495,0,U,63245,999,7094,.34241E-3,.3665E-4,0
LEMUR-2-LEIA-PHILIP,2025-052AN,2026-07-02T10:33:27.517248,14.97356498,.0004392,97.6813,75.1327,156.0283,204.1144,0,U,63246,999,7095,.17769E-3,.2006E-4,0
EZIE-A,2025-052AP,2026-07-02T09:59:01.999104,14.97461404,.0003647,97.6877,75.3356,128.3210,231.8340,0,U,63247,999,7094,.44455E-3,.512E-4,0
LEMUR-2-LIA-MARTIN,2025-052AQ,2026-07-02T15:21:39.464640,14.97926983,.0004686,97.6863,75.8271,122.6554,237.5121,0,U,63248,999,7099,.49698E-3,.5802E-4,0
EZIE-C,2025-052AR,2026-07-02T16:16:25.828608,14.97405800,.0003496,97.6859,75.4820,136.3622,223.7877,0,U,63249,999,7098,.35975E-3,.4126E-4,0
EZIE-B,2025-052AS,2026-07-02T04:55:42.277152,14.97341227,.0004746,97.6897,75.1902,120.6614,239.5076,0,U,63250,999,7091,.3047E-3,.348E-4,0
UVSQ-SAT NG,2025-052AT,2026-07-02T04:21:53.507520,14.95460530,.00035426,97.6838,74.3470,144.0187,216.1273,0,U,63251,999,7087,.33526576E-3,.3653E-4,0
ARVAKER-1,2025-052AU,2026-07-02T09:55:37.581024,14.94619500,.0003023,97.6855,74.2999,138.6849,221.4600,0,U,63252,999,7088,.20184E-3,.2129E-4,0
ICEYE-X48,2025-052AV,2026-07-02T10:04:12.798048,14.98070407,.000253,97.6848,75.3747,130.0840,230.0604,0,U,63253,999,7095,.28227E-3,.3281E-4,0
YAM-8,2025-052AW,2026-07-02T15:45:17.846784,15.11910330,.0003711,97.6928,85.2440,124.9600,235.1979,0,U,63254,999,7160,.35591E-3,.6031E-4,0
ICEYE-X50,2025-052AX,2026-07-02T19:35:49.773120,14.95330471,.0002733,97.6873,75.4109,124.9892,235.1586,0,U,63255,999,7098,.14237E-3,.1513E-4,0
FIRESAT 0 (MUSAT-4),2025-052AY,2026-07-02T10:01:11.610336,14.92956931,.0001264,97.6948,74.2560,111.3012,248.8342,0,U,63256,999,7086,.12713E-3,.1264E-4,0
ICEYE-X51,2025-052AZ,2026-07-02T19:00:03.765600,15.00859708,.0001937,97.7586,78.8563,71.9517,288.1918,0,U,63257,999,7114,.31446E-3,.3939E-4,0
ICEYE-X46,2025-052BA,2026-07-02T09:52:57.531072,14.95326959,.0001608,97.6874,75.0126,79.9957,280.1445,0,U,63258,999,7092,.99525E-4,.1041E-4,0
LEMUR-2-DELOITTE-1,2025-052BB,2026-07-02T10:02:01.089024,14.97706500,.0002511,97.6897,75.9405,67.7482,292.4006,0,U,63259,999,7097,.37152E-3,.4296E-4,0
TRANSPORTER-13 OBJECT BC,2025-052BC,2026-07-02T16:23:43.183680,14.94723025,.0000381,97.6829,74.7504,2.6478,357.4744,0,U,63260,999,7094,.13954E-3,.1459E-4,0
LEMUR-2-EMERSONROSE,2025-052BD,2026-07-02T15:29:09.631104,14.99195276,.0002502,97.6867,76.7500,76.9084,283.2418,0,U,63261,999,7105,.43236E-3,.5208E-4,0
LEMUR-2-MARACHE-FRAN,2025-052BE,2026-07-02T16:14:19.770144,15.00234829,.000433,97.6891,77.1310,313.7658,46.3207,0,U,63262,999,7108,.42213E-3,.5224E-4,0
SOAP,2025-052BF,2026-07-02T20:50:56.997600,14.96879823,.0000835,97.6850,75.9143,349.2989,10.8215,0,U,63263,999,7103,.2519E-3,.2832E-4,0
LEMUR-2-THEFALCONER,2025-052BG,2026-07-02T12:19:29.469792,14.97488536,.0001154,97.6840,75.6367,25.8688,334.2592,0,U,63264,999,7098,.42529E-3,.4899E-4,0
STARLINK-11654 [DTC],2025-053A,2026-07-02T03:55:05.578464,15.70824594,.0001788,43.0012,142.1785,222.2896,137.7834,0,U,63265,999,7567,.56241554E-3,.72301E-3,0
STARLINK-11659 [DTC],2025-053B,2026-07-02T14:28:23.747232,15.70850266,.0000962,42.9965,139.4565,186.0815,174.0041,0,U,63266,999,7574,.16273E-2,.213908E-2,0
STARLINK-11653 [DTC],2025-053C,2026-07-02T07:28:48.457344,15.70877908,.0002732,43.0018,141.5859,267.7022,92.3533,0,U,63267,999,7569,.12982E-2,.169857E-2,0
STARLINK-11641 [DTC],2025-053D,2026-07-02T14:05:26.793024,15.70883329,.000173,43.0002,139.3276,253.2574,106.8104,0,U,63268,999,7574,.12723E-2,.16642E-2,0
STARLINK-11638 [DTC],2025-053E,2026-07-02T18:47:46.235328,15.70853628,.0001902,43.0015,138.2191,270.5039,89.5610,0,U,63269,999,7577,.13963E-2,.182819E-2,0
STARLINK-11614 [DTC],2025-053F,2026-07-02T08:52:43.058784,15.70860158,.0002597,43.0010,141.1633,282.5350,77.5227,0,U,63270,999,7570,.1868E-2,.246709E-2,0
STARLINK-11620 [DTC],2025-053G,2026-07-02T13:50:20.596128,15.70897419,.0001903,43.0005,140.1410,292.1514,67.9151,0,U,63271,999,7573,.15489E-2,.20374E-2,0
STARLINK-11619 [DTC],2025-053H,2026-07-02T08:37:25.940064,15.70816626,.0001872,43.0003,141.0755,276.9719,83.0936,0,U,63272,999,7570,.14483E-2,.189501E-2,0
STARLINK-11621 [DTC],2025-053J,2026-07-02T16:00:01.998720,15.70855796,.0001432,43.0008,138.7736,279.3077,201.3520,0,U,63273,999,600,-.25953E-3,-.33637E-3,0
STARLINK-11615 [DTC],2025-053K,2026-07-02T20:57:32.931648,15.70909566,.0000874,42.9983,138.0531,266.2392,93.8376,0,U,63274,999,7578,.17299E-2,.228398E-2,0
